[
    {
        "Altitude(m)": 714618.2690307011,
        "Argument of Periapsis(deg)": 0.006834072711976239,
        "Eccentricity": 0.0,
        "Inclination(deg)": 45.0,
        "Latitude(deg)": -37.265471257411676,
        "Longitude(deg)": 95.36821472315432,
        "Mean Anomaly(deg)": -58.534570011511526,
        "RAAN(deg)": 244.9935488351251,
        "Satellite Name": "Constellation 1 1096",
        "Satellite Number": 1096,
        "Semi-Major Axis(m)": 7083131.272910544,
        "Time(s)": 114
    },
    {
        "Altitude(m)": 714606.7158941783,
        "Argument of Periapsis(deg)": 0.006894020718221645,
        "Eccentricity": 0.0,
        "Inclination(deg)": 45.0,
        "Latitude(deg)": -37.237367528244576,
        "Longitude(deg)": 95.43142565399194,
        "Mean Anomaly(deg)": -58.473868871261615,
        "RAAN(deg)": 244.99349224595952,
        "Satellite Name": "Constellation 1 1096",
        "Satellite Number": 1096,
        "Semi-Major Axis(m)": 7083131.272910544,
        "Time(s)": 115
    },
    {
        "Altitude(m)": 714595.1483263543,
        "Argument of Periapsis(deg)": 0.006953968724467052,
        "Eccentricity": 0.0,
        "Inclination(deg)": 45.0,
        "Latitude(deg)": -37.20922538972841,
        "Longitude(deg)": 95.49458673333042,
        "Mean Anomaly(deg)": -58.41316773101167,
        "RAAN(deg)": 244.99343565679396,
        "Satellite Name": "Constellation 1 1096",
        "Satellite Number": 1096,
        "Semi-Major Axis(m)": 7083131.272910544,
        "Time(s)": 116
    },
    {
        "Altitude(m)": 714583.5663690655,
        "Argument of Periapsis(deg)": 0.007013916730712457,
        "Eccentricity": 0.0,
        "Inclination(deg)": 45.0,
        "Latitude(deg)": -37.18104490830317,
        "Longitude(deg)": 95.55769798125783,
        "Mean Anomaly(deg)": -58.35246659076171,
        "RAAN(deg)": 244.9933790676284,
        "Satellite Name": "Constellation 1 1096",
        "Satellite Number": 1096,
        "Semi-Major Axis(m)": 7083131.272910544,
        "Time(s)": 117
    },
    {
        "Altitude(m)": 714571.9700641811,
        "Argument of Periapsis(deg)": 0.007073864736957864,
        "Eccentricity": 0.0,
        "Inclination(deg)": 45.0,
        "Latitude(deg)": -37.15282615036495,
        "Longitude(deg)": 95.62075941815992,
        "Mean Anomaly(deg)": -58.291765450511974,
        "RAAN(deg)": 244.99332247846283,
        "Satellite Name": "Constellation 1 1096",
        "Satellite Number": 1096,
        "Semi-Major Axis(m)": 7083131.272910544,
        "Time(s)": 118
    },
    {
        "Altitude(m)": 714560.3594536381,
        "Argument of Periapsis(deg)": 0.0071338127432032696,
        "Eccentricity": 0.0,
        "Inclination(deg)": 45.0,
        "Latitude(deg)": -37.124569182265404,
        "Longitude(deg)": 95.68377089662246,
        "Mean Anomaly(deg)": -58.23106431026201,
        "RAAN(deg)": 244.99326588929728,
        "Satellite Name": "Constellation 1 1096",
        "Satellite Number": 1096,
        "Semi-Major Axis(m)": 7083131.272910544,
        "Time(s)": 119
    },
    {
        "Altitude(m)": 714548.7345794108,
        "Argument of Periapsis(deg)": 0.007193760749448674,
        "Eccentricity": 0.0,
        "Inclination(deg)": 45.0,
        "Latitude(deg)": -37.09627407031183,
        "Longitude(deg)": 95.74673277381596,
        "Mean Anomaly(deg)": -58.170363170012,
        "RAAN(deg)": 244.99320930013167,
        "Satellite Name": "Constellation 1 1096",
        "Satellite Number": 1096,
        "Semi-Major Axis(m)": 7083131.272910544,
        "Time(s)": 120
    },
    {
        "Altitude(m)": 714537.0954835186,
        "Argument of Periapsis(deg)": 0.007253708755694079,
        "Eccentricity": 0.0,
        "Inclination(deg)": 45.0,
        "Latitude(deg)": -37.06794088076672,
        "Longitude(deg)": 95.80964490291387,
        "Mean Anomaly(deg)": -58.10966202976227,
        "RAAN(deg)": 244.99315271096611,
        "Satellite Name": "Constellation 1 1096",
        "Satellite Number": 1096,
        "Semi-Major Axis(m)": 7083131.272910544,
        "Time(s)": 121
    },
    {
        "Altitude(m)": 714525.4422080339,
        "Argument of Periapsis(deg)": 0.0073136567619394854,
        "Eccentricity": 0.0,
        "Inclination(deg)": 45.0,
        "Latitude(deg)": -37.03956967984699,
        "Longitude(deg)": 95.87250730547949,
        "Mean Anomaly(deg)": -58.04896088951231,
        "RAAN(deg)": 244.99309612180056,
        "Satellite Name": "Constellation 1 1096",
        "Satellite Number": 1096,
        "Semi-Major Axis(m)": 7083131.272910544,
        "Time(s)": 122
    },
    {
        "Altitude(m)": 714513.7747950787,
        "Argument of Periapsis(deg)": 0.0073736047681848904,
        "Eccentricity": 0.0,
        "Inclination(deg)": 45.0,
        "Latitude(deg)": -37.011160533724336,
        "Longitude(deg)": 95.9353200033659,
        "Mean Anomaly(deg)": -57.98825974926236,
        "RAAN(deg)": 244.99303953263498,
        "Satellite Name": "Constellation 1 1096",
        "Satellite Number": 1096,
        "Semi-Major Axis(m)": 7083131.272910544,
        "Time(s)": 123
    },
    {
        "Altitude(m)": 714502.0932868089,
        "Argument of Periapsis(deg)": 0.007433552774430298,
        "Eccentricity": 0.0,
        "Inclination(deg)": 45.0,
        "Latitude(deg)": -36.9827135085244,
        "Longitude(deg)": 95.99808301871596,
        "Mean Anomaly(deg)": -57.9275586090124,
        "RAAN(deg)": 244.99298294346943,
        "Satellite Name": "Constellation 1 1096",
        "Satellite Number": 1096,
        "Semi-Major Axis(m)": 7083131.272910544,
        "Time(s)": 124
    },
    {
        "Altitude(m)": 714490.397725441,
        "Argument of Periapsis(deg)": 0.007493500780675703,
        "Eccentricity": 0.0,
        "Inclination(deg)": 45.0,
        "Latitude(deg)": -36.954228670326806,
        "Longitude(deg)": 96.06079637395996,
        "Mean Anomaly(deg)": -57.86685746876267,
        "RAAN(deg)": 244.99292635430385,
        "Satellite Name": "Constellation 1 1096",
        "Satellite Number": 1096,
        "Semi-Major Axis(m)": 7083131.272910544,
        "Time(s)": 125
    },
    {
        "Altitude(m)": 714478.6881532331,
        "Argument of Periapsis(deg)": 0.007553448786921108,
        "Eccentricity": 0.0,
        "Inclination(deg)": 45.0,
        "Latitude(deg)": -36.925706085164315,
        "Longitude(deg)": 96.1234599237188,
        "Mean Anomaly(deg)": -57.80615632851266,
        "RAAN(deg)": 244.99286976513827,
        "Satellite Name": "Constellation 1 1096",
        "Satellite Number": 1096,
        "Semi-Major Axis(m)": 7083131.272910544,
        "Time(s)": 126
    },
    {
        "Altitude(m)": 714466.96461249,
        "Argument of Periapsis(deg)": 0.007613396793166514,
        "Eccentricity": 0.0,
        "Inclination(deg)": 45.0,
        "Latitude(deg)": -36.89714581902321,
        "Longitude(deg)": 96.18607402718827,
        "Mean Anomaly(deg)": -57.745455188262824,
        "RAAN(deg)": 244.99281317597269,
        "Satellite Name": "Constellation 1 1096",
        "Satellite Number": 1096,
        "Semi-Major Axis(m)": 7083131.272910544,
        "Time(s)": 127
    },
    {
        "Altitude(m)": 714455.2271455658,
        "Argument of Periapsis(deg)": 0.007673344799411918,
        "Eccentricity": 0.0,
        "Inclination(deg)": 45.0,
        "Latitude(deg)": -36.86854793784242,
        "Longitude(deg)": 96.24863853955776,
        "Mean Anomaly(deg)": -57.68475404801296,
        "RAAN(deg)": 244.99275658680713,
        "Satellite Name": "Constellation 1 1096",
        "Satellite Number": 1096,
        "Semi-Major Axis(m)": 7083131.272910544,
        "Time(s)": 128
    },
    {
        "Altitude(m)": 714443.4757948522,
        "Argument of Periapsis(deg)": 0.007733292805657325,
        "Eccentricity": 0.0,
        "Inclination(deg)": 45.0,
        "Latitude(deg)": -36.839912507513375,
        "Longitude(deg)": 96.31115348439603,
        "Mean Anomaly(deg)": -57.624052907763,
        "RAAN(deg)": 244.99269999764158,
        "Satellite Name": "Constellation 1 1096",
        "Satellite Number": 1096,
        "Semi-Major Axis(m)": 7083131.272910544,
        "Time(s)": 129
    },
    {
        "Altitude(m)": 714431.7106027975,
        "Argument of Periapsis(deg)": 0.00779324081190273,
        "Eccentricity": 0.0,
        "Inclination(deg)": 45.0,
        "Latitude(deg)": -36.8112395938799,
        "Longitude(deg)": 96.37361888555259,
        "Mean Anomaly(deg)": -57.563351767513055,
        "RAAN(deg)": 244.99264340847603,
        "Satellite Name": "Constellation 1 1096",
        "Satellite Number": 1096,
        "Semi-Major Axis(m)": 7083131.272910544,
        "Time(s)": 130
    },
    {
        "Altitude(m)": 714419.9316118881,
        "Argument of Periapsis(deg)": 0.007853188818148135,
        "Eccentricity": 0.0,
        "Inclination(deg)": 45.0,
        "Latitude(deg)": -36.78252926273763,
        "Longitude(deg)": 96.43603476715643,
        "Mean Anomaly(deg)": -57.50265062726326,
        "RAAN(deg)": 244.99258681931042,
        "Satellite Name": "Constellation 1 1096",
        "Satellite Number": 1096,
        "Semi-Major Axis(m)": 7083131.272910544,
        "Time(s)": 131
    },
    {
        "Altitude(m)": 714408.1388646648,
        "Argument of Periapsis(deg)": 0.007913136824393542,
        "Eccentricity": 0.0,
        "Inclination(deg)": 45.0,
        "Latitude(deg)": -36.75378157983372,
        "Longitude(deg)": 96.49840115361553,
        "Mean Anomaly(deg)": -57.44194948701331,
        "RAAN(deg)": 244.99253023014484,
        "Satellite Name": "Constellation 1 1096",
        "Satellite Number": 1096,
        "Semi-Major Axis(m)": 7083131.272910544,
        "Time(s)": 132
    }
]